{"fetched_at":"2026-07-24T07:06:35.314Z","source":"https://celestrak.org/NORAD/elements/gp.php?NAME=ICEYE&FORMAT=JSON","constellation":"iceye","records":[{"OBJECT_NAME":"ICEYE-X40","OBJECT_ID":"2024-149CK","EPOCH":"2026-07-23T15:21:15.433344","CLASSIFICATION_TYPE":"U","MEAN_MOTION":14.98123234,"ECCENTRICITY":0.0003403,"INCLINATION":97.6808,"RA_OF_ASC_NODE":280.5506,"ARG_OF_PERICENTER":338.6321,"MEAN_ANOMALY":21.4758,"EPHEMERIS_TYPE":0,"NORAD_CAT_ID":60549,"ELEMENT_SET_NO":999,"REV_AT_EPOCH":10553,"BSTAR":0.00031896,"MEAN_MOTION_DOT":0.0000372,"MEAN_MOTION_DDOT":0},{"OBJECT_NAME":"ICEYE-X49","OBJECT_ID":"2024-247H","EPOCH":"2026-07-23T06:36:16.477344","CLASSIFICATION_TYPE":"U","MEAN_MOTION":15.13496291,"ECCENTRICITY":0.0000646,"INCLINATION":44.9969,"RA_OF_ASC_NODE":164.6226,"ARG_OF_PERICENTER":185.0567,"MEAN_ANOMALY":175.0304,"EPHEMERIS_TYPE":0,"NORAD_CAT_ID":62384,"ELEMENT_SET_NO":999,"REV_AT_EPOCH":8764,"BSTAR":0.00021576,"MEAN_MOTION_DOT":0.00003672,"MEAN_MOTION_DDOT":0},{"OBJECT_NAME":"ICEYE-X47","OBJECT_ID":"2024-247N","EPOCH":"2026-07-23T13:56:24.629568","CLASSIFICATION_TYPE":"U","MEAN_MOTION":15.13514484,"ECCENTRICITY":0.0000607,"INCLINATION":44.9966,"RA_OF_ASC_NODE":162.5791,"ARG_OF_PERICENTER":59.5565,"MEAN_ANOMALY":300.5372,"EPHEMERIS_TYPE":0,"NORAD_CAT_ID":62389,"ELEMENT_SET_NO":999,"REV_AT_EPOCH":8769,"BSTAR":0.00012547,"MEAN_MOTION_DOT":0.00002029,"MEAN_MOTION_DDOT":0},{"OBJECT_NAME":"ICEYE-X42","OBJECT_ID":"2025-009CT","EPOCH":"2026-07-23T05:23:55.153824","CLASSIFICATION_TYPE":"U","MEAN_MOTION":14.91841477,"ECCENTRICITY":0.0001318,"INCLINATION":97.7387,"RA_OF_ASC_NODE":281.8893,"ARG_OF_PERICENTER":99.6162,"MEAN_ANOMALY":260.5206,"EPHEMERIS_TYPE":0,"NORAD_CAT_ID":62698,"ELEMENT_SET_NO":999,"REV_AT_EPOCH":8266,"BSTAR":0.00018143,"MEAN_MOTION_DOT":0.00001776,"MEAN_MOTION_DDOT":0},{"OBJECT_NAME":"ICEYE-X41","OBJECT_ID":"2025-009CV","EPOCH":"2026-07-23T12:03:27.184608","CLASSIFICATION_TYPE":"U","MEAN_MOTION":14.96952485,"ECCENTRICITY":0.0000832,"INCLINATION":97.7058,"RA_OF_ASC_NODE":283.5022,"ARG_OF_PERICENTER":156.493,"MEAN_ANOMALY":203.633,"EPHEMERIS_TYPE":0,"NORAD_CAT_ID":62700,"ELEMENT_SET_NO":999,"REV_AT_EPOCH":8284,"BSTAR":0.00033734,"MEAN_MOTION_DOT":0.0000382,"MEAN_MOTION_DDOT":0},{"OBJECT_NAME":"ICEYE-X45","OBJECT_ID":"2025-009DA","EPOCH":"2026-07-23T15:57:43.936704","CLASSIFICATION_TYPE":"U","MEAN_MOTION":15.00858467,"ECCENTRICITY":0.000071,"INCLINATION":97.8435,"RA_OF_ASC_NODE":291.6599,"ARG_OF_PERICENTER":43.5454,"MEAN_ANOMALY":316.5825,"EPHEMERIS_TYPE":0,"NORAD_CAT_ID":62705,"ELEMENT_SET_NO":999,"REV_AT_EPOCH":8315,"BSTAR":0.0003732,"MEAN_MOTION_DOT":0.00004685,"MEAN_MOTION_DDOT":0},{"OBJECT_NAME":"ICEYE-X44","OBJECT_ID":"2025-009DC","EPOCH":"2026-07-23T04:49:53.311008","CLASSIFICATION_TYPE":"U","MEAN_MOTION":14.96195449,"ECCENTRICITY":0.00018901,"INCLINATION":97.7048,"RA_OF_ASC_NODE":282.7598,"ARG_OF_PERICENTER":55.9937,"MEAN_ANOMALY":304.1463,"EPHEMERIS_TYPE":0,"NORAD_CAT_ID":62707,"ELEMENT_SET_NO":999,"REV_AT_EPOCH":10532,"BSTAR":0.00017542835,"MEAN_MOTION_DOT":0.0000192,"MEAN_MOTION_DDOT":0},{"OBJECT_NAME":"ICEYE-X48","OBJECT_ID":"2025-052AV","EPOCH":"2026-07-23T12:37:14.471616","CLASSIFICATION_TYPE":"U","MEAN_MOTION":14.98166597,"ECCENTRICITY":0.0004331,"INCLINATION":97.6843,"RA_OF_ASC_NODE":96.1542,"ARG_OF_PERICENTER":83.7709,"MEAN_ANOMALY":276.4007,"EPHEMERIS_TYPE":0,"NORAD_CAT_ID":63253,"ELEMENT_SET_NO":999,"REV_AT_EPOCH":7411,"BSTAR":0.00023766,"MEAN_MOTION_DOT":0.0000276,"MEAN_MOTION_DDOT":0},{"OBJECT_NAME":"ICEYE-X50","OBJECT_ID":"2025-052AX","EPOCH":"2026-07-23T19:52:10.482240","CLASSIFICATION_TYPE":"U","MEAN_MOTION":14.95382079,"ECCENTRICITY":0.0003419,"INCLINATION":97.6842,"RA_OF_ASC_NODE":96.0127,"ARG_OF_PERICENTER":87.4057,"MEAN_ANOMALY":272.7555,"EPHEMERIS_TYPE":0,"NORAD_CAT_ID":63255,"ELEMENT_SET_NO":999,"REV_AT_EPOCH":7412,"BSTAR":0.00014089,"MEAN_MOTION_DOT":0.00001499,"MEAN_MOTION_DDOT":0},{"OBJECT_NAME":"ICEYE-X51","OBJECT_ID":"2025-052AZ","EPOCH":"2026-07-22T19:01:04.725120","CLASSIFICATION_TYPE":"U","MEAN_MOTION":15.00900798,"ECCENTRICITY":0.00021141,"INCLINATION":97.7619,"RA_OF_ASC_NODE":98.8279,"ARG_OF_PERICENTER":62.8734,"MEAN_ANOMALY":297.2705,"EPHEMERIS_TYPE":0,"NORAD_CAT_ID":63257,"ELEMENT_SET_NO":999,"REV_AT_EPOCH":7414,"BSTAR":0.00032695867,"MEAN_MOTION_DOT":0.00004103,"MEAN_MOTION_DDOT":0},{"OBJECT_NAME":"ICEYE-X46","OBJECT_ID":"2025-052BA","EPOCH":"2026-07-23T16:34:43.220064","CLASSIFICATION_TYPE":"U","MEAN_MOTION":14.95384421,"ECCENTRICITY":0.0001514,"INCLINATION":97.6845,"RA_OF_ASC_NODE":95.8778,"ARG_OF_PERICENTER":84.1926,"MEAN_ANOMALY":275.9468,"EPHEMERIS_TYPE":0,"NORAD_CAT_ID":63258,"ELEMENT_SET_NO":999,"REV_AT_EPOCH":7410,"BSTAR":0.00012513,"MEAN_MOTION_DOT":0.00001325,"MEAN_MOTION_DDOT":0},{"OBJECT_NAME":"ICEYE-X54","OBJECT_ID":"2025-135AU","EPOCH":"2026-07-23T13:50:56.153184","CLASSIFICATION_TYPE":"U","MEAN_MOTION":14.94700818,"ECCENTRICITY":0.0002486,"INCLINATION":97.7742,"RA_OF_ASC_NODE":318.6549,"ARG_OF_PERICENTER":168.2129,"MEAN_ANOMALY":191.915,"EPHEMERIS_TYPE":0,"NORAD_CAT_ID":64570,"ELEMENT_SET_NO":999,"REV_AT_EPOCH":5933,"BSTAR":0.00032889,"MEAN_MOTION_DOT":0.00003512,"MEAN_MOTION_DDOT":0},{"OBJECT_NAME":"ICEYE-X52","OBJECT_ID":"2025-135AW","EPOCH":"2026-07-23T20:22:26.705280","CLASSIFICATION_TYPE":"U","MEAN_MOTION":14.93674478,"ECCENTRICITY":0.0001971,"INCLINATION":97.7773,"RA_OF_ASC_NODE":318.7021,"ARG_OF_PERICENTER":164.248,"MEAN_ANOMALY":195.8802,"EPHEMERIS_TYPE":0,"NORAD_CAT_ID":64572,"ELEMENT_SET_NO":999,"REV_AT_EPOCH":5935,"BSTAR":0.00017295,"MEAN_MOTION_DOT":0.00001772,"MEAN_MOTION_DDOT":0},{"OBJECT_NAME":"ICEYE-X56","OBJECT_ID":"2025-135AY","EPOCH":"2026-07-23T19:49:46.896672","CLASSIFICATION_TYPE":"U","MEAN_MOTION":14.95803576,"ECCENTRICITY":0.0001915,"INCLINATION":97.7771,"RA_OF_ASC_NODE":319.5068,"ARG_OF_PERICENTER":167.4466,"MEAN_ANOMALY":192.6803,"EPHEMERIS_TYPE":0,"NORAD_CAT_ID":64574,"ELEMENT_SET_NO":999,"REV_AT_EPOCH":5940,"BSTAR":0.00025122,"MEAN_MOTION_DOT":0.00002746,"MEAN_MOTION_DDOT":0},{"OBJECT_NAME":"ICEYE-X57","OBJECT_ID":"2025-135BC","EPOCH":"2026-07-23T19:14:27.608352","CLASSIFICATION_TYPE":"U","MEAN_MOTION":15.00870244,"ECCENTRICITY":0.0002145,"INCLINATION":97.8044,"RA_OF_ASC_NODE":321.3904,"ARG_OF_PERICENTER":54.1921,"MEAN_ANOMALY":305.9502,"EPHEMERIS_TYPE":0,"NORAD_CAT_ID":64578,"ELEMENT_SET_NO":999,"REV_AT_EPOCH":5951,"BSTAR":0.00017379,"MEAN_MOTION_DOT":0.00002149,"MEAN_MOTION_DDOT":0},{"OBJECT_NAME":"ICEYE-X55","OBJECT_ID":"2025-135BF","EPOCH":"2026-07-23T20:03:51.738336","CLASSIFICATION_TYPE":"U","MEAN_MOTION":14.95398176,"ECCENTRICITY":0.0002603,"INCLINATION":97.7763,"RA_OF_ASC_NODE":319.3366,"ARG_OF_PERICENTER":202.9858,"MEAN_ANOMALY":157.1246,"EPHEMERIS_TYPE":0,"NORAD_CAT_ID":64581,"ELEMENT_SET_NO":999,"REV_AT_EPOCH":5939,"BSTAR":0.00028245,"MEAN_MOTION_DOT":0.00003062,"MEAN_MOTION_DDOT":0}]}
